[{"OBJECT_NAME":"GPS BIIR-2  (PRN 13)","OBJECT_ID":"1997-035A","EPOCH":"2026-04-25T08:27:02.055168","MEAN_MOTION":2.00563818,"ECCENTRICITY":0.00998799,"INCLINATION":55.967,"RA_OF_ASC_NODE":100.6395,"ARG_OF_PERICENTER":56.197,"MEAN_ANOMALY":304.7489,"EPHEMERIS_TYPE":0,"CLASSIFICATION_TYPE":"U","NORAD_CAT_ID":24876,"ELEMENT_SET_NO":999,"REV_AT_EPOCH":21089,"BSTAR":0,"MEAN_MOTION_DOT":5.5e-7,"MEAN_MOTION_DDOT":0},{"OBJECT_NAME":"GPS BIIR-5  (PRN 22)","OBJECT_ID":"2000-040A","EPOCH":"2026-04-26T10:45:41.132736","MEAN_MOTION":2.00557178,"ECCENTRICITY":0.0121559,"INCLINATION":54.8616,"RA_OF_ASC_NODE":217.2167,"ARG_OF_PERICENTER":302.3575,"MEAN_ANOMALY":64.4226,"EPHEMERIS_TYPE":0,"CLASSIFICATION_TYPE":"U","NORAD_CAT_ID":26407,"ELEMENT_SET_NO":999,"REV_AT_EPOCH":18891,"BSTAR":0,"MEAN_MOTION_DOT":-4.8e-7,"MEAN_MOTION_DDOT":0},{"OBJECT_NAME":"GPS BIIR-8  (PRN 16)","OBJECT_ID":"2003-005A","EPOCH":"2026-04-26T06:24:28.628064","MEAN_MOTION":2.00563332,"ECCENTRICITY":0.0148194,"INCLINATION":54.8927,"RA_OF_ASC_NODE":217.0313,"ARG_OF_PERICENTER":52.9603,"MEAN_ANOMALY":318.0024,"EPHEMERIS_TYPE":0,"CLASSIFICATION_TYPE":"U","NORAD_CAT_ID":27663,"ELEMENT_SET_NO":999,"REV_AT_EPOCH":17027,"BSTAR":0,"MEAN_MOTION_DOT":-4.8e-7,"MEAN_MOTION_DDOT":0},{"OBJECT_NAME":"GPS BIIR-11 (PRN 19)","OBJECT_ID":"2004-009A","EPOCH":"2026-04-26T12:55:48.508032","MEAN_MOTION":2.00556343,"ECCENTRICITY":0.0113684,"INCLINATION":54.8736,"RA_OF_ASC_NODE":277.7725,"ARG_OF_PERICENTER":170.8393,"MEAN_ANOMALY":190.7377,"EPHEMERIS_TYPE":0,"CLASSIFICATION_TYPE":"U","NORAD_CAT_ID":28190,"ELEMENT_SET_NO":999,"REV_AT_EPOCH":16191,"BSTAR":0,"MEAN_MOTION_DOT":-4.9e-7,"MEAN_MOTION_DDOT":0},{"OBJECT_NAME":"GPS BIIR-13 (PRN 02)","OBJECT_ID":"2004-045A","EPOCH":"2026-04-24T18:04:08.259168","MEAN_MOTION":2.0055335,"ECCENTRICITY":0.01700868,"INCLINATION":55.1665,"RA_OF_ASC_NODE":327.0483,"ARG_OF_PERICENTER":314.9297,"MEAN_ANOMALY":262.4767,"EPHEMERIS_TYPE":0,"CLASSIFICATION_TYPE":"U","NORAD_CAT_ID":28474,"ELEMENT_SET_NO":999,"REV_AT_EPOCH":15735,"BSTAR":0,"MEAN_MOTION_DOT":-7.0e-7,"MEAN_MOTION_DDOT":0},{"OBJECT_NAME":"GPS BIIRM-1 (PRN 17)","OBJECT_ID":"2005-038A","EPOCH":"2026-04-26T12:14:48.719040","MEAN_MOTION":2.00569234,"ECCENTRICITY":0.0127781,"INCLINATION":54.9216,"RA_OF_ASC_NODE":275.2615,"ARG_OF_PERICENTER":295.8485,"MEAN_ANOMALY":71.6096,"EPHEMERIS_TYPE":0,"CLASSIFICATION_TYPE":"U","NORAD_CAT_ID":28874,"ELEMENT_SET_NO":999,"REV_AT_EPOCH":15080,"BSTAR":0,"MEAN_MOTION_DOT":-4.9e-7,"MEAN_MOTION_DDOT":0},{"OBJECT_NAME":"GPS BIIRM-2 (PRN 31)","OBJECT_ID":"2006-042A","EPOCH":"2026-04-25T03:54:29.012256","MEAN_MOTION":2.00572767,"ECCENTRICITY":0.01061457,"INCLINATION":54.7024,"RA_OF_ASC_NODE":153.4444,"ARG_OF_PERICENTER":53.4415,"MEAN_ANOMALY":318.7117,"EPHEMERIS_TYPE":0,"CLASSIFICATION_TYPE":"U","NORAD_CAT_ID":29486,"ELEMENT_SET_NO":999,"REV_AT_EPOCH":14333,"BSTAR":0,"MEAN_MOTION_DOT":4.3e-7,"MEAN_MOTION_DDOT":0},{"OBJECT_NAME":"GPS BIIRM-3 (PRN 12)","OBJECT_ID":"2006-052A","EPOCH":"2026-04-24T13:40:50.622240","MEAN_MOTION":2.00555028,"ECCENTRICITY":0.00864806,"INCLINATION":54.9441,"RA_OF_ASC_NODE":216.131,"ARG_OF_PERICENTER":90.248,"MEAN_ANOMALY":270.7556,"EPHEMERIS_TYPE":0,"CLASSIFICATION_TYPE":"U","NORAD_CAT_ID":29601,"ELEMENT_SET_NO":999,"REV_AT_EPOCH":14233,"BSTAR":0,"MEAN_MOTION_DOT":-3.8e-7,"MEAN_MOTION_DDOT":0},{"OBJECT_NAME":"GPS BIIRM-4 (PRN 15)","OBJECT_ID":"2007-047A","EPOCH":"2026-04-26T08:54:02.888064","MEAN_MOTION":2.00557876,"ECCENTRICITY":0.0164776,"INCLINATION":54.0582,"RA_OF_ASC_NODE":82.2,"ARG_OF_PERICENTER":86.4922,"MEAN_ANOMALY":275.3708,"EPHEMERIS_TYPE":0,"CLASSIFICATION_TYPE":"U","NORAD_CAT_ID":32260,"ELEMENT_SET_NO":999,"REV_AT_EPOCH":13577,"BSTAR":0,"MEAN_MOTION_DOT":7.0e-8,"MEAN_MOTION_DDOT":0},{"OBJECT_NAME":"GPS BIIRM-5 (PRN 29)","OBJECT_ID":"2007-062A","EPOCH":"2026-04-25T22:27:28.749024","MEAN_MOTION":2.00556812,"ECCENTRICITY":0.00345525,"INCLINATION":55.0752,"RA_OF_ASC_NODE":276.2515,"ARG_OF_PERICENTER":162.363,"MEAN_ANOMALY":10.5363,"EPHEMERIS_TYPE":0,"CLASSIFICATION_TYPE":"U","NORAD_CAT_ID":32384,"ELEMENT_SET_NO":999,"REV_AT_EPOCH":13446,"BSTAR":0,"MEAN_MOTION_DOT":-4.2e-7,"MEAN_MOTION_DDOT":0},{"OBJECT_NAME":"GPS BIIRM-6 (PRN 07)","OBJECT_ID":"2008-012A","EPOCH":"2026-04-26T06:52:19.996320","MEAN_MOTION":2.00570968,"ECCENTRICITY":0.0209705,"INCLINATION":54.4883,"RA_OF_ASC_NODE":151.9984,"ARG_OF_PERICENTER":247.1041,"MEAN_ANOMALY":110.7336,"EPHEMERIS_TYPE":0,"CLASSIFICATION_TYPE":"U","NORAD_CAT_ID":32711,"ELEMENT_SET_NO":999,"REV_AT_EPOCH":13271,"BSTAR":0,"MEAN_MOTION_DOT":5.8e-7,"MEAN_MOTION_DDOT":0},{"OBJECT_NAME":"GPS BIIRM-8 (PRN 05)","OBJECT_ID":"2009-043A","EPOCH":"2026-04-25T18:47:40.518240","MEAN_MOTION":2.00557111,"ECCENTRICITY":0.0052955,"INCLINATION":56.1794,"RA_OF_ASC_NODE":29.5103,"ARG_OF_PERICENTER":81.3411,"MEAN_ANOMALY":288.625,"EPHEMERIS_TYPE":0,"CLASSIFICATION_TYPE":"U","NORAD_CAT_ID":35752,"ELEMENT_SET_NO":999,"REV_AT_EPOCH":12231,"BSTAR":0,"MEAN_MOTION_DOT":-1.01e-6,"MEAN_MOTION_DDOT":0},{"OBJECT_NAME":"GPS BIIF-1  (PRN 25)","OBJECT_ID":"2010-022A","EPOCH":"2026-04-25T02:30:31.761792","MEAN_MOTION":2.00559747,"ECCENTRICITY":0.01266581,"INCLINATION":54.2773,"RA_OF_ASC_NODE":210.7001,"ARG_OF_PERICENTER":66.0807,"MEAN_ANOMALY":291.1096,"EPHEMERIS_TYPE":0,"CLASSIFICATION_TYPE":"U","NORAD_CAT_ID":36585,"ELEMENT_SET_NO":999,"REV_AT_EPOCH":11652,"BSTAR":0,"MEAN_MOTION_DOT":-4.1e-7,"MEAN_MOTION_DDOT":0},{"OBJECT_NAME":"GPS BIIF-3  (PRN 24)","OBJECT_ID":"2012-053A","EPOCH":"2026-04-23T23:20:21.228288","MEAN_MOTION":2.00566553,"ECCENTRICITY":0.0177937,"INCLINATION":53.5743,"RA_OF_ASC_NODE":145.8203,"ARG_OF_PERICENTER":65.1328,"MEAN_ANOMALY":296.7656,"EPHEMERIS_TYPE":0,"CLASSIFICATION_TYPE":"U","NORAD_CAT_ID":38833,"ELEMENT_SET_NO":999,"REV_AT_EPOCH":9835,"BSTAR":0,"MEAN_MOTION_DOT":4.0e-7,"MEAN_MOTION_DDOT":0},{"OBJECT_NAME":"GPS BIIF-4  (PRN 27)","OBJECT_ID":"2013-023A","EPOCH":"2026-04-23T08:08:51.629280","MEAN_MOTION":2.00563719,"ECCENTRICITY":0.01419293,"INCLINATION":54.5486,"RA_OF_ASC_NODE":271.2064,"ARG_OF_PERICENTER":50.6414,"MEAN_ANOMALY":310.5808,"EPHEMERIS_TYPE":0,"CLASSIFICATION_TYPE":"U","NORAD_CAT_ID":39166,"ELEMENT_SET_NO":999,"REV_AT_EPOCH":9478,"BSTAR":0,"MEAN_MOTION_DOT":-1.4e-7,"MEAN_MOTION_DDOT":0},{"OBJECT_NAME":"GPS BIIF-5  (PRN 30)","OBJECT_ID":"2014-008A","EPOCH":"2026-04-25T08:01:38.106912","MEAN_MOTION":2.00556368,"ECCENTRICITY":0.00837727,"INCLINATION":53.6444,"RA_OF_ASC_NODE":151.4757,"ARG_OF_PERICENTER":230.1062,"MEAN_ANOMALY":129.2171,"EPHEMERIS_TYPE":0,"CLASSIFICATION_TYPE":"U","NORAD_CAT_ID":39533,"ELEMENT_SET_NO":999,"REV_AT_EPOCH":8862,"BSTAR":0,"MEAN_MOTION_DOT":4.5e-7,"MEAN_MOTION_DDOT":0},{"OBJECT_NAME":"GPS BIIF-6  (PRN 06)","OBJECT_ID":"2014-026A","EPOCH":"2026-04-26T02:36:49.608000","MEAN_MOTION":2.00564801,"ECCENTRICITY":0.0038949,"INCLINATION":56.5221,"RA_OF_ASC_NODE":333.5452,"ARG_OF_PERICENTER":326.6709,"MEAN_ANOMALY":33.1214,"EPHEMERIS_TYPE":0,"CLASSIFICATION_TYPE":"U","NORAD_CAT_ID":39741,"ELEMENT_SET_NO":999,"REV_AT_EPOCH":8749,"BSTAR":0,"MEAN_MOTION_DOT":-7.8e-7,"MEAN_MOTION_DDOT":0}]
